start=new Date('2023-03-03T00:00:00.000Z').valueOf();
sats=[{"TLE_LINE1":"1 48673U 21044AM  23061.33516705  .00030865  00000-0  20805-2 0  9990","SITE":"AFETR","BSTAR":"0.00208050000000","PERIOD":"95.591","OBJECT_TYPE":"PAYLOAD","EPHEMERIS_TYPE":"0","MEAN_MOTION_DOT":"0.00030865","REF_FRAME":"TEME","GP_ID":"227360285","DECAY_DATE":null,"MEAN_MOTION":"15.06425830","MEAN_ANOMALY":"254.1999","OBJECT_ID":"2021-044AM","RA_OF_ASC_NODE":"24.7661","EPOCH":"2023-03-02T08:02:38.433120","APOAPSIS":"548.084","COUNTRY_CODE":"US","SEMIMAJOR_AXIS":"6925.269","NORAD_CAT_ID":"48673","MEAN_ELEMENT_THEORY":"SGP4","ELEMENT_SET_NO":"999","FILE":"3849487","ECCENTRICITY":"0.00013710","MEAN_MOTION_DDOT":"0.0000000000000","INCLINATION":"53.0555","RCS_SIZE":"LARGE","OBJECT_NAME":"STARLINK-2711","TIME_SYSTEM":"UTC","REV_AT_EPOCH":"9754","TLE_LINE2":"2 48673  53.0555  24.7661 0001371 105.9141 254.1999 15.06425830 97540","LAUNCH_DATE":"2021-05-26","PERIAPSIS":"546.185","CLASSIFICATION_TYPE":"U","ARG_OF_PERICENTER":"105.9141","CENTER_NAME":"EARTH"},{"FILE":"3849487","ELEMENT_SET_NO":"999","MEAN_ELEMENT_THEORY":"SGP4","NORAD_CAT_ID":"48674","ARG_OF_PERICENTER":"104.5190","CENTER_NAME":"EARTH","CLASSIFICATION_TYPE":"U","PERIAPSIS":"546.561","TLE_LINE2":"2 48674  53.0536  25.0852 0000861 104.5190 255.5895 15.06418515 97539","LAUNCH_DATE":"2021-05-26","REV_AT_EPOCH":"9753","INCLINATION":"53.0536","RCS_SIZE":"LARGE","OBJECT_NAME":"STARLINK-2712","TIME_SYSTEM":"UTC","MEAN_MOTION_DDOT":"0.0000000000000","ECCENTRICITY":"0.00008610","REF_FRAME":"TEME","MEAN_MOTION_DOT":"0.00030190","EPHEMERIS_TYPE":"0","OBJECT_TYPE":"PAYLOAD","PERIOD":"95.591","BSTAR":"0.00203600000000","SITE":"AFETR","TLE_LINE1":"1 48674U 21044AN  23061.26419201  .00030190  00000-0  20360-2 0  9993","COUNTRY_CODE":"US","SEMIMAJOR_AXIS":"6925.292","APOAPSIS":"547.753","EPOCH":"2023-03-02T06:20:26.189664","RA_OF_ASC_NODE":"25.0852","OBJECT_ID":"2021-044AN","MEAN_ANOMALY":"255.5895","MEAN_MOTION":"15.06418515","GP_ID":"227361029","DECAY_DATE":null},{"REV_AT_EPOCH":"9754","RCS_SIZE":"LARGE","TIME_SYSTEM":"UTC","INCLINATION":"53.0548","OBJECT_NAME":"STARLINK-2737","MEAN_MOTION_DDOT":"0.0000000000000","ECCENTRICITY":"0.00009280","PERIAPSIS":"546.491","TLE_LINE2":"2 48675  53.0548  24.8021 0000928 118.8086 241.2997 15.06426061 97545","LAUNCH_DATE":"2021-05-26","ARG_OF_PERICENTER":"118.8086","CENTER_NAME":"EARTH","CLASSIFICATION_TYPE":"U","MEAN_ELEMENT_THEORY":"SGP4","NORAD_CAT_ID":"48675","ELEMENT_SET_NO":"999","FILE":"3849487","OBJECT_ID":"2021-044AP","MEAN_ANOMALY":"241.2997","MEAN_MOTION":"15.06426061","DECAY_DATE":null,"GP_ID":"227359284","SEMIMAJOR_AXIS":"6925.269","COUNTRY_CODE":"US","APOAPSIS":"547.776","EPOCH":"2023-03-02T07:52:01.522560","RA_OF_ASC_NODE":"24.8021","BSTAR":"0.00217560000000","PERIOD":"95.590","TLE_LINE1":"1 48675U 21044AP  23061.32779540  .00032296  00000-0  21756-2 0  9995","SITE":"AFETR","OBJECT_TYPE":"PAYLOAD","EPHEMERIS_TYPE":"0","REF_FRAME":"TEME","MEAN_MOTION_DOT":"0.00032296"},{"NORAD_CAT_ID":"48676","MEAN_ELEMENT_THEORY":"SGP4","ELEMENT_SET_NO":"999","FILE":"3849487","MEAN_MOTION_DDOT":"0.0000000000000","ECCENTRICITY":"0.00010410","REV_AT_EPOCH":"9754","TIME_SYSTEM":"UTC","RCS_SIZE":"LARGE","INCLINATION":"53.0554","OBJECT_NAME":"STARLINK-2746","TLE_LINE2":"2 48676  53.0554  24.8180 0001041 114.6796 245.4301 15.06428892 97547","LAUNCH_DATE":"2021-05-26","PERIAPSIS":"546.404","CENTER_NAME":"EARTH","ARG_OF_PERICENTER":"114.6796","CLASSIFICATION_TYPE":"U","BSTAR":"0.00214630000000","PERIOD":"95.590","TLE_LINE1":"1 48676U 21044AQ  23061.32410585  .00031858  00000-0  21463-2 0  9995","SITE":"AFETR","OBJECT_TYPE":"PAYLOAD","EPHEMERIS_TYPE":"0","MEAN_MOTION_DOT":"0.00031858","REF_FRAME":"TEME","MEAN_MOTION":"15.06428892","GP_ID":"227359534","DECAY_DATE":null,"OBJECT_ID":"2021-044AQ","MEAN_ANOMALY":"245.4301","EPOCH":"2023-03-02T07:46:42.745440","RA_OF_ASC_NODE":"24.8180","COUNTRY_CODE":"US","SEMIMAJOR_AXIS":"6925.260","APOAPSIS":"547.846"},{"RA_OF_ASC_NODE":"25.4331","EPOCH":"2023-03-02T04:28:57.344448","APOAPSIS":"547.809","COUNTRY_CODE":"US","SEMIMAJOR_AXIS":"6925.258","GP_ID":"227360779","DECAY_DATE":null,"MEAN_MOTION":"15.06429615","MEAN_ANOMALY":"251.3546","OBJECT_ID":"2021-044AR","MEAN_MOTION_DOT":"0.00032826","REF_FRAME":"TEME","EPHEMERIS_TYPE":"0","OBJECT_TYPE":"PAYLOAD","SITE":"AFETR","TLE_LINE1":"1 48677U 21044AR  23061.18677482  .00032826  00000-0  22106-2 0  9992","BSTAR":"0.00221060000000","PERIOD":"95.590","CLASSIFICATION_TYPE":"U","ARG_OF_PERICENTER":"108.7550","CENTER_NAME":"EARTH","TLE_LINE2":"2 48677  53.0545  25.4331 0000991 108.7550 251.3546 15.06429615 97527","LAUNCH_DATE":"2021-05-26","PERIAPSIS":"546.437","ECCENTRICITY":"0.00009910","MEAN_MOTION_DDOT":"0.0000000000000","RCS_SIZE":"LARGE","OBJECT_NAME":"STARLINK-2719","INCLINATION":"53.0545","TIME_SYSTEM":"UTC","REV_AT_EPOCH":"9752","FILE":"3849487","ELEMENT_SET_NO":"999","NORAD_CAT_ID":"48677","MEAN_ELEMENT_THEORY":"SGP4"},{"OBJECT_TYPE":"PAYLOAD","PERIOD":"95.592","BSTAR":"0.00166630000000","SITE":"AFETR","TLE_LINE1":"1 48678U 21044AS  23061.84749940  .00024625  00000-0  16663-2 0  9994","REF_FRAME":"TEME","MEAN_MOTION_DOT":"0.00024625","EPHEMERIS_TYPE":"0","COUNTRY_CODE":"US","SEMIMAJOR_AXIS":"6925.347","APOAPSIS":"547.901","EPOCH":"2023-03-02T20:20:23.948160","RA_OF_ASC_NODE":"22.4634","OBJECT_ID":"2021-044AS","MEAN_ANOMALY":"257.0038","MEAN_MOTION":"15.06400525","GP_ID":"227360536","DECAY_DATE":null,"ELEMENT_SET_NO":"999","MEAN_ELEMENT_THEORY":"SGP4","NORAD_CAT_ID":"48678","FILE":"3849487","PERIAPSIS":"546.523","TLE_LINE2":"2 48678  53.0541  22.4634 0000995 103.1062 257.0038 15.06400525 97627","LAUNCH_DATE":"2021-05-26","REV_AT_EPOCH":"9762","INCLINATION":"53.0541","RCS_SIZE":"LARGE","OBJECT_NAME":"STARLINK-2615","TIME_SYSTEM":"UTC","MEAN_MOTION_DDOT":"0.0000000000000","ECCENTRICITY":"0.00009950","ARG_OF_PERICENTER":"103.1062","CENTER_NAME":"EARTH","CLASSIFICATION_TYPE":"U"},{"FILE":"3849487","NORAD_CAT_ID":"48679","MEAN_ELEMENT_THEORY":"SGP4","ELEMENT_SET_NO":"999","CENTER_NAME":"EARTH","ARG_OF_PERICENTER":"90.8405","CLASSIFICATION_TYPE":"U","MEAN_MOTION_DDOT":"0.0000000000000","ECCENTRICITY":"0.00022210","REV_AT_EPOCH":"9762","RCS_SIZE":"LARGE","INCLINATION":"53.0556","OBJECT_NAME":"STARLINK-2648","TIME_SYSTEM":"UTC","TLE_LINE2":"2 48679  53.0556  22.4906 0002221  90.8405 269.2839 15.06434985 97624","LAUNCH_DATE":"2021-05-26","PERIAPSIS":"545.568","EPHEMERIS_TYPE":"0","MEAN_MOTION_DOT":"0.00029761","REF_FRAME":"TEME","PERIOD":"95.590","BSTAR":"0.00200650000000","SITE":"AFETR","TLE_LINE1":"1 48679U 21044AT  23061.84382125  .00029761  00000-0  20065-2 0  9990","OBJECT_TYPE":"PAYLOAD","MEAN_MOTION":"15.06434985","GP_ID":"227359778","DECAY_DATE":null,"OBJECT_ID":"2021-044AT","MEAN_ANOMALY":"269.2839","EPOCH":"2023-03-02T20:15:06.156000","RA_OF_ASC_NODE":"22.4906","SEMIMAJOR_AXIS":"6925.241","COUNTRY_CODE":"US","APOAPSIS":"548.644"},{"FILE":"3849487","ELEMENT_SET_NO":"999","NORAD_CAT_ID":"48680","MEAN_ELEMENT_THEORY":"SGP4","CLASSIFICATION_TYPE":"U","CENTER_NAME":"EARTH","ARG_OF_PERICENTER":"121.7785","LAUNCH_DATE":"2021-05-26","TLE_LINE2":"2 48680  53.0548  24.8837 0001108 121.7785 238.3312 15.06419819 97547","PERIAPSIS":"546.385","ECCENTRICITY":"0.00011080","MEAN_MOTION_DDOT":"0.0000000000000","INCLINATION":"53.0548","RCS_SIZE":"LARGE","OBJECT_NAME":"STARLINK-2649","TIME_SYSTEM":"UTC","REV_AT_EPOCH":"9754","MEAN_MOTION_DOT":"0.00033283","REF_FRAME":"TEME","EPHEMERIS_TYPE":"0","OBJECT_TYPE":"PAYLOAD","TLE_LINE1":"1 48680U 21044AU  23061.30936821  .00033283  00000-0  22416-2 0  9997","SITE":"AFETR","PERIOD":"95.591","BSTAR":"0.00224160000000","RA_OF_ASC_NODE":"24.8837","EPOCH":"2023-03-02T07:25:29.413344","APOAPSIS":"547.920","COUNTRY_CODE":"US","SEMIMAJOR_AXIS":"6925.288","GP_ID":"227360028","DECAY_DATE":null,"MEAN_MOTION":"15.06419819","MEAN_ANOMALY":"238.3312","OBJECT_ID":"2021-044AU"},{"SITE":"AFETR","TLE_LINE1":"1 48681U 21044AV  23061.83924431  .00015235  00000-0  10389-2 0  9993","BSTAR":"0.00103890000000","PERIOD":"95.591","OBJECT_TYPE":"PAYLOAD","EPHEMERIS_TYPE":"0","REF_FRAME":"TEME","MEAN_MOTION_DOT":"0.00015235","MEAN_ANOMALY":"256.2227","OBJECT_ID":"2021-044AV","DECAY_DATE":null,"GP_ID":"227360286","MEAN_MOTION":"15.06420591","APOAPSIS":"547.939","COUNTRY_CODE":"US","SEMIMAJOR_AXIS":"6925.285","RA_OF_ASC_NODE":"352.7444","EPOCH":"2023-03-02T20:08:30.708384","MEAN_ELEMENT_THEORY":"SGP4","NORAD_CAT_ID":"48681","ELEMENT_SET_NO":"999","FILE":"3849487","INCLINATION":"53.0532","RCS_SIZE":"LARGE","TIME_SYSTEM":"UTC","OBJECT_NAME":"STARLINK-2725","REV_AT_EPOCH":"9803","ECCENTRICITY":"0.00011390","MEAN_MOTION_DDOT":"0.0000000000000","PERIAPSIS":"546.362","TLE_LINE2":"2 48681  53.0532 352.7444 0001139 103.8889 256.2227 15.06420591 98036","LAUNCH_DATE":"2021-05-26","CLASSIFICATION_TYPE":"U","CENTER_NAME":"EARTH","ARG_OF_PERICENTER":"103.8889"},{"MEAN_MOTION_DOT":"0.00057442","REF_FRAME":"TEME","EPHEMERIS_TYPE":"0","OBJECT_TYPE":"PAYLOAD","PERIOD":"95.590","BSTAR":"0.00384020000000","SITE":"AFETR","TLE_LINE1":"1 48682U 21044AW  23061.77012470  .00057442  00000-0  38402-2 0  9990","EPOCH":"2023-03-02T18:28:58.774080","RA_OF_ASC_NODE":"342.9905","SEMIMAJOR_AXIS":"6925.238","COUNTRY_CODE":"US","APOAPSIS":"547.844","MEAN_MOTION":"15.06436071","DECAY_DATE":null,"GP_ID":"227361030","OBJECT_ID":"2021-044AW","MEAN_ANOMALY":"223.7253","FILE":"3849487","ELEMENT_SET_NO":"999","NORAD_CAT_ID":"48682","MEAN_ELEMENT_THEORY":"SGP4","CENTER_NAME":"EARTH","ARG_OF_PERICENTER":"136.3820","CLASSIFICATION_TYPE":"U","TLE_LINE2":"2 48682  53.0536 342.9905 0001070 136.3820 223.7253 15.06436071 98166","LAUNCH_DATE":"2021-05-26","PERIAPSIS":"546.362","MEAN_MOTION_DDOT":"0.0000000000000","ECCENTRICITY":"0.00010700","REV_AT_EPOCH":"9816","INCLINATION":"53.0536","RCS_SIZE":"LARGE","TIME_SYSTEM":"UTC","OBJECT_NAME":"STARLINK-2743"}];
